LEMUR-1                 
1 40044U 14033AL  26094.91957789  .00002987  00000+0  35016-3 0  9992
2 40044  97.7771 246.4084 0047561 319.7371  40.0325 14.84940563634599
LEMUR-2-GREENBERG       
1 42837U 17042N   26094.45230218  .00029827  00000+0  10563-2 0  9998
2 42837  97.3794 275.5541 0008084 264.1100  95.9218 15.29047499477112
LEMUR-2-ANDIS           
1 42838U 17042P   26094.43849223  .00038460  00000+0  12451-2 0  9990
2 42838  97.3671 275.5014 0008351 265.9553  94.0734 15.31900072477155
LEMUR-2-MONSON          
1 42839U 17042Q   26094.43818379  .00027550  00000+0  10716-2 0  9999
2 42839  97.4052 275.6129 0005819 249.3714 110.6900 15.25977356476914
LEMUR-2-FURIAUS         
1 42840U 17042R   26094.91272373  .00027106  00000+0  10022-2 0  9999
2 42840  97.3756 274.1407 0006832 323.2837  36.7933 15.27657366477017
LEMUR-2-PETERG          
1 42841U 17042S   26094.44209965  .00038167  00000+0  12705-2 0  9994
2 42841  97.3990 279.5216 0003368 230.9994 129.0948 15.31031539477143
LEMUR-2-DEMBITZ         
1 42842U 17042T   26094.48264768  .00030258  00000+0  11051-2 0  9997
2 42842  97.3815 276.6631 0005821 277.4868  82.5710 15.28046211477083
LEMUR-2-ZACHARY         
1 42845U 17042W   26094.52490060  .00049442  00000+0  10649-2 0  9998
2 42845  97.3640 284.9116 0003200 272.9828  87.1054 15.44448842477814
LEMUR-2-JIN-LUEN        
1 43182U 18014C   26094.79902322  .01961668  32724-2  23120-2 0  9994
2 43182  97.5379  27.8959 0010752 155.4600 204.7196 16.09333951449619
LEMUR-2-KADI            
1 43184U 18014E   26094.59665750  .00161028  00000+0  12952-2 0  9996
2 43184  97.4626  20.8784 0006303 123.4305 236.7561 15.70434125449442
LEMUR-2-AMANDA-SVANTE   
1 48269U 21034B   26094.68780652  .00042436  00000+0  14474-2 0  9992
2 48269  97.5793 171.2723 0004193 142.3139 217.8396 15.30215120269805
LEMUR-2-SPECIAL-K       
1 48273U 21034F   26094.77692059  .00111092  00000+0  19680-2 0  9999
2 48273  97.5682 177.2878 0002098 188.5436 171.5780 15.49869261270275
LEMUR-2-EMBRIONOVIS     
1 56970U 23084AQ  26094.35397944  .00027278  00000+0  78776-3 0  9992
2 56970  97.6184 235.8777 0008661 210.8767 149.1968 15.35603890156342
LEMUR-2-MANO            
1 57390U 23100E   26094.66015286  .00242678  00000+0  19474-2 0  9990
2 57390  99.4459 125.9874 0008382 187.8293 172.2833 15.70215291150545
LEMUR-2-DEVERILL-M-T    
1 57391U 23100F   26094.52094147  .00036929  00000+0  10409-2 0  9998
2 57391  99.4549 112.2318 0005488 288.0988  71.9651 15.36333113149926
LEMUR-2-BASS            
1 58259U 23174D   26094.68162025  .00022698  00000+0  55443-3 0  9997
2 58259  97.3855 178.5022 0008283  81.3166 278.9019 15.40811238134039
LEMUR-2-JK0903EM1407    
1 58336U 23174CJ  26094.92734570  .00029156  00000+0  55420-3 0  9991
2 58336  97.3895 183.5651 0004854  29.2566 330.8956 15.48206511134384
LEMUR-2-MJR092620       
1 58340U 23174CN  26094.78117034  .00017640  00000+0  40308-3 0  9994
2 58340  97.3966 183.5970 0007150  35.0527 325.1190 15.42884128134327
LEMUR-2-NIMBUS2000      
1 58899U 24022A   26094.53370482  .00024226  00000+0  65276-3 0  9996
2 58899  97.4194 303.7027 0009716  31.2016 328.9804 15.37777410120945
LEMUR-2-VALHALLA        
1 58900U 24022B   26094.51694202  .00023864  00000+0  64809-3 0  9994
2 58900  97.4189 303.7092 0010127  26.9034 333.2734 15.37531657120945
LEMUR-2-OBA-NI-JESU     
1 58902U 24022D   26094.57118000  .00160279  00000+0  12068-2 0  9990
2 58902  97.3986 314.0656 0002275 336.9025  23.2135 15.72040182121658
LEMUR-2-CAEL            
1 58903U 24022E   26094.52024503  .00023682  00000+0  61969-3 0  9991
2 58903  97.4174 304.5267 0007999  12.0597 348.0838 15.38700684121004
LEMUR-2-JOHNNYTRUONG    
1 59146U 24043BA  26094.92182013  .00041324  00000+0  60809-3 0  9994
2 59146  97.5307 242.4224 0004975  96.0018 264.1803 15.55327250116633
LEMUR-2-TOMATOKECHUP    
1 60471U 24149D   26094.78239387  .00017372  00000+0  52096-3 0  9990
2 60471  97.3809 176.7261 0003212 121.4946 238.6611 15.34536711 90902
LEMUR-2-STELLA          
1 60533U 24149BT  26094.77253840  .00018802  00000+0  11513-2 0  9995
2 60533  97.6743 176.9994 0000824 120.5719 239.5592 15.10241770 89414
LEMUR-2-MARHISYAM       
1 60536U 24149BW  26094.72799619  .00016996  00000+0  10552-2 0  9996
2 60536  97.6878 177.3249 0002167  48.4623 311.6791 15.09761393 89394
LEMUR-2-AHMED-ASRAR     
1 60576U 24149DN  26094.76319617  .00017060  00000+0  10208-2 0  9991
2 60576  97.7006 179.1805 0001273 203.4333 156.6839 15.11106279 89476
LEMUR-2-LLOYD           
1 60577U 24149DP  26094.21451895  .00020845  00000+0  13616-2 0  9998
2 60577  97.6764 175.3855 0004711  59.3933 300.7759 15.07842520 89243
LEMUR-2-SQUIRRELCOMM    
1 60578U 24149DQ  26094.93750068  .00008379  00000+0  57391-3 0  9999
2 60578  97.6725 176.1269 0003991 308.6878  51.3992 15.06312695 89372
LEMUR-2-SIERRINI        
1 60579U 24149DR  26094.80226037  .00016635  00000+0  10417-2 0  9991
2 60579  97.6847 177.1608 0006379  78.6510 281.5435 15.09436946 89385
LEMUR-2-WILSON          
1 62694U 25009CP  26094.67156007  .00004195  00000+0  39035-3 0  9997
2 62694  97.7039 174.4399 0001891 286.1477  73.9535 14.94844304 66370
LEMUR-2-STAR-FOX        
1 62696U 25009CR  26094.80900791  .00014885  00000+0  11546-2 0  9994
2 62696  97.6979 177.0309 0003338 108.6059 251.5528 15.01468769 66547
LEMUR-2-ARIANNA         
1 62699U 25009CU  26094.93770300  .00010937  00000+0  85173-3 0  9994
2 62699  97.6918 177.0002 0003935 100.5262 259.6406 15.01392628 66569
LEMUR-2-ALISIA          
1 62706U 25009DB  26094.73012943  .00013080  00000+0  10105-2 0  9997
2 62706  97.6933 177.4690 0005390 104.1115 256.0708 15.01648522 89137
LEMUR-2-ROUNDTRIPPER    
1 62711U 25009DG  26094.80383457  .00014134  00000+0  10633-2 0  9999
2 62711  97.7247 177.6630 0004818  51.6176 308.5481 15.02641148 66601
LEMUR-2-MYNAMEISJEFF    
1 62712U 25009DH  26094.80226993  .00013349  00000+0  10047-2 0  9997
2 62712  97.7288 177.9984 0004243  81.1432 279.0274 15.02641929 66606
LEMUR-2-LEIA-PHILIP     
1 63246U 25052AN  26094.95428937  .00007779  00000+0  68056-3 0  9990
2 63246  97.6906 348.1202 0004924 107.1814 252.9947 14.96995167 57716
LEMUR-2-LIA-MARTIN      
1 63248U 25052AQ  26094.70543856  .00009107  00000+0  79254-3 0  9992
2 63248  97.6965 348.2636 0004795  82.0230 278.1536 14.97152488 57686
LEMUR-2-DELOITTE-1      
1 63259U 25052BB  26094.67500007  .00006548  00000+0  57269-3 0  9999
2 63259  97.7002 348.5547 0002161  41.3306 318.8079 14.97076094 57695
LEMUR-2-EMERSONROSE     
1 63261U 25052BD  26094.65590409  .00007817  00000+0  65722-3 0  9998
2 63261  97.6985 348.9437 0001435  60.6682 299.4683 14.98549485 57722
LEMUR-2-MARACHE-FRAN    
1 63262U 25052BE  26094.94089472  .00007782  00000+0  64132-3 0  9999
2 63262  97.6986 349.4503 0001124 336.6739  23.4433 14.99323802 57786
LEMUR-2-THEFALCONER     
1 63264U 25052BG  26094.95864319  .00007430  00000+0  65287-3 0  9995
2 63264  97.6931 348.5315 0000927 216.8508 143.2650 14.96850681 57736
LEMUR-2-UNTITLED-SC     
1 63351U 25061A   26094.88658588  .00006297  00000+0  35919-3 0  9992
2 63351  97.5594  70.8375 0019678 153.2584 206.9666 15.12954283 56509
LEMUR-2-ESPERANZA       
1 63352U 25061B   26094.93421081  .00006145  00000+0  34988-3 0  9992
2 63352  97.5603  70.9615 0019346 152.0559 208.1715 15.13038969 56515
LEMUR-2-KREMPEL-BRO2    
1 63353U 25061C   26094.91578982  .00005334  00000+0  30049-3 0  9997
2 63353  97.5648  71.3832 0020534 145.1290 215.1291 15.13463146 56524
LEMUR-2-THERMORAPTOR    
1 63354U 25061D   26094.90135952  .00005612  00000+0  31541-3 0  9990
2 63354  97.5653  71.4314 0020227 144.4125 215.8459 15.13527047 56529
LEMUR-2-NEUROSPICY      
1 63355U 25061E   26094.87852090  .00006764  00000+0  37852-3 0  9996
2 63355  97.5582  71.0920 0017937 147.6689 212.5645 15.13641566 56528
LEMUR-2-TILLINFINITY    
1 63356U 25061F   26094.87606100  .00006637  00000+0  36526-3 0  9992
2 63356  97.5567  71.3287 0019483 136.7805 223.4959 15.14220623 56547
LEMUR-2-KREMPEL-BRO1    
1 63357U 25061G   26094.90640678  .00005517  00000+0  30573-3 0  9997
2 63357  97.5568  71.2951 0020170 137.7745 222.5044 15.14039019 56547
LEMUR-2-LANGER2SPACE    
1 63358U 25061H   26094.91829588  .00005468  00000+0  30596-3 0  9998
2 63358  97.5575  71.1503 0017921 145.4727 214.7672 15.13735740 56536
LEMUR-2-BALTO           
1 63395U 25052BH  26094.65961280  .00010935  00000+0  89818-3 0  9992
2 63395  97.6986 349.1620 0000732  87.1259 273.0048 14.99353244 57743
LEMUR-2-KRISH           
1 64561U 25135AK  26094.82673738  .00007543  00000+0  68561-3 0  9990
2 64561  97.7651 210.2914 0001178  96.4219 263.7136 14.95519983 42958
LEMUR-2-HUBBLE-4        
1 64565U 25135AP  26094.89268813  .00002086  00000+0  20610-3 0  9995
2 64565  97.7603 209.7274 0003307 147.1827 212.9598 14.92992454 42937
LEMUR-2-SEJONG-2        
1 64586U 25135BL  26094.88233613  .00005585  00000+0  50193-3 0  9993
2 64586  97.7601 210.4826 0004092 191.2397 168.8734 14.96071973 42988
LEMUR-2-HUBBLE-5        
1 64840U 25135BT  26094.88687434  .00003152  00000+0  30166-3 0  9996
2 64840  97.7626 210.2467 0004869 208.6717 151.4236 14.93911302 42967
LEMUR-2-KARENDARRELL    
1 64841U 25135BU  26094.78562845  .00015440  00000+0  12745-2 0  9999
2 64841  97.7607 211.1883 0008593 114.1006 246.1117 14.99050983 43011
LEMUR-2-LUCILLE-ROSE    
1 65403U 25135BV  26094.89427119  .00011536  00000+0  95257-3 0  9992
2 65403  97.7646 211.2816 0010284 156.9466 203.2221 14.99097448 37650
LEMUR-2-AFFIE-WAUWIE    
1 66295U 25248C   26094.86516403  .00021613  00000+0  86438-3 0  9997
2 66295  45.4006 151.4892 0007925  14.9250 345.1871 15.24791420 23394
LEMUR-2-DEANANDMAEVE    
1 66678U 25276N   26094.67912480  .00011255  00000+0  54351-3 0  9997
2 66678  97.4243 169.4150 0004536 248.8570 111.2180 15.18810180 19256
